OBJECT C                
1 57582U 23117C   25286.93638605  .00022022  00000+0  78637-3 0  9995
2 57582  97.4338   1.4766 0008902  42.7367 317.4564 15.28830847120790
